{"type": "FeatureCollection", "features": [ {"type": "Feature", "properties": {"norad_id": 66651, "name": "2025-274B", "group": "last-30-days", "lat": 81.07153571342626, "lon": -155.00053045338663, "alt_km": 592.2450375453182, "timestamp": "2025-12-03T13:52:08.347286+00:00", "meta": {"OBJECT_NAME": "2025-274B", "OBJECT_ID": "2025-274B", "EPOCH": "2025-12-03T07:02:49.038432", "MEAN_MOTION": 14.91679224, "ECCENTRICITY": 0.00107269, "INCLINATION": 97.7377, "RA_OF_ASC_NODE": 264.6557, "ARG_OF_PERICENTER": 287.4555, "MEAN_ANOMALY": 72.5491, "EPHEMERIS_TYPE": 0, "CLASSIFICATION_TYPE": "U", "NORAD_CAT_ID": 66651, "ELEMENT_SET_NO": 999, "REV_AT_EPOCH": 99, "BSTAR": 0.00056631047, "MEAN_MOTION_DOT": 5.646e-05, "MEAN_MOTION_DDOT": 0}, "tle": {"line1": "1 66651U 25274B   25337.29362313  .00005646  00000+0  56631-3 0  9997", "line2": "2 66651  97.7377 264.6557 0010726 287.4555  72.5491 14.91679224   994"}}, "geometry": {"type": "Point", "coordinates": [-155.00053045338663, 81.07153571342626]}}, {"type": "Feature", "properties": {"norad_id": 66652, "name": "2025-274C", "group": "last-30-days", "lat": 82.22252845558543, "lon": -179.6654158553735, "alt_km": 591.4643415228848, "timestamp": "2025-12-03T13:52:08.347296+00:00", "meta": {"OBJECT_NAME": "2025-274C", "OBJECT_ID": "2025-274C", "EPOCH": "2025-12-03T05:25:16.521024", "MEAN_MOTION": 14.91822835, "ECCENTRICITY": 0.00104962, "INCLINATION": 97.7382, "RA_OF_ASC_NODE": 264.5912, "ARG_OF_PERICENTER": 294.3514, "MEAN_ANOMALY": 65.6609, "EPHEMERIS_TYPE": 0, "CLASSIFICATION_TYPE": "U", "NORAD_CAT_ID": 66652, "ELEMENT_SET_NO": 999, "REV_AT_EPOCH": 98, "BSTAR": 0.00041220059, "MEAN_MOTION_DOT": 4.108e-05, "MEAN_MOTION_DDOT": 0}, "tle": {"line1": "1 66652U 25274C   25337.22588566  .00004108  00000+0  41220-3 0  9991", "line2": "2 66652  97.7382 264.5912 0010496 294.3514  65.6609 14.91822835   982"}}, "geometry": {"type": "Point", "coordinates": [-179.6654158553735, 82.22252845558543]}}, {"type": "Feature", "properties": {"norad_id": 66653, "name": "2025-274D", "group": "last-30-days", "lat": 82.2395089130526, "lon": 178.78532423793294, "alt_km": 592.1703700953385, "timestamp": "2025-12-03T13:52:08.347309+00:00", "meta": {"OBJECT_NAME": "2025-274D", "OBJECT_ID": "2025-274D", "EPOCH": "2025-12-03T05:25:13.001952", "MEAN_MOTION": 14.91829699, "ECCENTRICITY": 0.00112857, "INCLINATION": 97.738, "RA_OF_ASC_NODE": 264.591, "ARG_OF_PERICENTER": 290.1409, "MEAN_ANOMALY": 69.8595, "EPHEMERIS_TYPE": 0, "CLASSIFICATION_TYPE": "U", "NORAD_CAT_ID": 66653, "ELEMENT_SET_NO": 999, "REV_AT_EPOCH": 98, "BSTAR": 0.00038988898, "MEAN_MOTION_DOT": 3.884e-05, "MEAN_MOTION_DDOT": 0}, "tle": {"line1": "1 66653U 25274D   25337.22584493  .00003884  00000+0  38989-3 0  9995", "line2": "2 66653  97.7380 264.5910 0011285 290.1409  69.8595 14.91829699   988"}}, "geometry": {"type": "Point", "coordinates": [178.78532423793294, 82.2395089130526]}}, {"type": "Feature", "properties": {"norad_id": 66654, "name": "JACK E", "group": "last-30-days", "lat": 81.51532264623556, "lon": 150.65656135493117, "alt_km": 592.1557731436542, "timestamp": "2025-12-03T13:52:08.347319+00:00", "meta": {"OBJECT_NAME": "JACK E", "OBJECT_ID": "2025-274E", "EPOCH": "2025-12-03T07:00:46.492128", "MEAN_MOTION": 14.91995256, "ECCENTRICITY": 0.00118397, "INCLINATION": 97.7384, "RA_OF_ASC_NODE": 264.658, "ARG_OF_PERICENTER": 291.4111, "MEAN_ANOMALY": 68.5844, "EPHEMERIS_TYPE": 0, "CLASSIFICATION_TYPE": "U", "NORAD_CAT_ID": 66654, "ELEMENT_SET_NO": 999, "REV_AT_EPOCH": 99, "BSTAR": 0.00047327439, "MEAN_MOTION_DOT": 4.748e-05, "MEAN_MOTION_DDOT": 0}, "tle": {"line1": "1 66654U 25274E   25337.29220477  .00004748  00000+0  47327-3 0  9998", "line2": "2 66654  97.7384 264.6580 0011839 291.4111  68.5844 14.91995256   993"}}, "geometry": {"type": "Point", "coordinates": [150.65656135493117, 81.51532264623556]}}, {"type": "Feature", "properties": {"norad_id": 66655, "name": "2025-274F", "group": "last-30-days", "lat": 79.56870274683291, "lon": 132.53386677875267, "alt_km": 587.7252040523344, "timestamp": "2025-12-03T13:52:08.347330+00:00", "meta": {"OBJECT_NAME": "2025-274F", "OBJECT_ID": "2025-274F", "EPOCH": "2025-12-03T06:59:54.847392", "MEAN_MOTION": 14.92219503, "ECCENTRICITY": 0.00078747, "INCLINATION": 97.7359, "RA_OF_ASC_NODE": 264.6588, "ARG_OF_PERICENTER": 319.8503, "MEAN_ANOMALY": 40.2134, "EPHEMERIS_TYPE": 0, "CLASSIFICATION_TYPE": "U", "NORAD_CAT_ID": 66655, "ELEMENT_SET_NO": 999, "REV_AT_EPOCH": 99, "BSTAR": 0.00047770941, "MEAN_MOTION_DOT": 4.817e-05, "MEAN_MOTION_DDOT": 0}, "tle": {"line1": "1 66655U 25274F   25337.29160703  .00004817  00000+0  47771-3 0  9994", "line2": "2 66655  97.7359 264.6588 0007874 319.8503  40.2134 14.92219503   992"}}, "geometry": {"type": "Point", "coordinates": [132.53386677875267, 79.56870274683291]}}, {"type": "Feature", "properties": {"norad_id": 66656, "name": "2025-274G", "group": "last-30-days", "lat": 78.93892678870341, "lon": 129.01316073102996, "alt_km": 592.2706253611868, "timestamp": "2025-12-03T13:52:08.347345+00:00", "meta": {"OBJECT_NAME": "2025-274G", "OBJECT_ID": "2025-274G", "EPOCH": "2025-12-03T00:33:22.809888", "MEAN_MOTION": 14.92174032, "ECCENTRICITY": 0.00125314, "INCLINATION": 97.7381, "RA_OF_ASC_NODE": 264.3956, "ARG_OF_PERICENTER": 293.9277, "MEAN_ANOMALY": 66.063, "EPHEMERIS_TYPE": 0, "CLASSIFICATION_TYPE": "U", "NORAD_CAT_ID": 66656, "ELEMENT_SET_NO": 999, "REV_AT_EPOCH": 95, "BSTAR": 0.00050145272, "MEAN_MOTION_DOT": 5.058e-05, "MEAN_MOTION_DDOT": 0}, "tle": {"line1": "1 66656U 25274G   25337.02318067  .00005058  00000+0  50145-3 0  9991", "line2": "2 66656  97.7381 264.3956 0012531 293.9277  66.0630 14.92174032   950"}}, "geometry": {"type": "Point", "coordinates": [129.01316073102996, 78.93892678870341]}}, {"type": "Feature", "properties": {"norad_id": 66657, "name": "SPIRONE", "group": "last-30-days", "lat": 75.42712009281188, "lon": 116.4768473460113, "alt_km": 590.2232937027384, "timestamp": "2025-12-03T13:52:08.347356+00:00", "meta": {"OBJECT_NAME": "SPIRONE", "OBJECT_ID": "2025-274H", "EPOCH": "2025-12-03T06:58:30.313632", "MEAN_MOTION": 14.92357413, "ECCENTRICITY": 0.00111336, "INCLINATION": 97.7379, "RA_OF_ASC_NODE": 264.6598, "ARG_OF_PERICENTER": 312.11, "MEAN_ANOMALY": 47.9172, "EPHEMERIS_TYPE": 0, "CLASSIFICATION_TYPE": "U", "NORAD_CAT_ID": 66657, "ELEMENT_SET_NO": 999, "REV_AT_EPOCH": 99, "BSTAR": 0.00051860474, "MEAN_MOTION_DOT": 5.255e-05, "MEAN_MOTION_DDOT": 0}, "tle": {"line1": "1 66657U 25274H   25337.29062863  .00005255  00000+0  51860-3 0  9995", "line2": "2 66657  97.7379 264.6598 0011133 312.1100  47.9172 14.92357413   998"}}, "geometry": {"type": "Point", "coordinates": [116.4768473460113, 75.42712009281188]}}, {"type": "Feature", "properties": {"norad_id": 66658, "name": "2025-274J", "group": "last-30-days", "lat": 71.58951660973783, "lon": 109.05478520823732, "alt_km": 590.4161721077207, "timestamp": "2025-12-03T13:52:08.347367+00:00", "meta": {"OBJECT_NAME": "2025-274J", "OBJECT_ID": "2025-274J", "EPOCH": "2025-12-03T06:57:23.007168", "MEAN_MOTION": 14.92531966, "ECCENTRICITY": 0.00117441, "INCLINATION": 97.7381, "RA_OF_ASC_NODE": 264.6607, "ARG_OF_PERICENTER": 314.8955, "MEAN_ANOMALY": 45.131, "EPHEMERIS_TYPE": 0, "CLASSIFICATION_TYPE": "U", "NORAD_CAT_ID": 66658, "ELEMENT_SET_NO": 999, "REV_AT_EPOCH": 99, "BSTAR": 0.00049582647, "MEAN_MOTION_DOT": 5.045e-05, "MEAN_MOTION_DDOT": 0}, "tle": {"line1": "1 66658U 25274J   25337.28984962  .00005045  00000+0  49583-3 0  9994", "line2": "2 66658  97.7381 264.6607 0011744 314.8955  45.1310 14.92531966   999"}}, "geometry": {"type": "Point", "coordinates": [109.05478520823732, 71.58951660973783]}}, {"type": "Feature", "properties": {"norad_id": 66659, "name": "JACK K", "group": "last-30-days", "lat": 67.33592599612146, "lon": 103.95007162578493, "alt_km": 590.8648694483336, "timestamp": "2025-12-03T13:52:08.347378+00:00", "meta": {"OBJECT_NAME": "JACK K", "OBJECT_ID": "2025-274K", "EPOCH": "2025-12-03T06:56:11.915520", "MEAN_MOTION": 14.92717917, "ECCENTRICITY": 0.0012467, "INCLINATION": 97.7382, "RA_OF_ASC_NODE": 264.662, "ARG_OF_PERICENTER": 315.9556, "MEAN_ANOMALY": 44.0669, "EPHEMERIS_TYPE": 0, "CLASSIFICATION_TYPE": "U", "NORAD_CAT_ID": 66659, "ELEMENT_SET_NO": 999, "REV_AT_EPOCH": 99, "BSTAR": 0.00049134978, "MEAN_MOTION_DOT": 5.023e-05, "MEAN_MOTION_DDOT": 0}, "tle": {"line1": "1 66659U 25274K   25337.28902680  .00005023  00000+0  49135-3 0  9991", "line2": "2 66659  97.7382 264.6620 0012467 315.9556  44.0669 14.92717917   995"}}, "geometry": {"type": "Point", "coordinates": [103.95007162578493, 67.33592599612146]}}, {"type": "Feature", "properties": {"norad_id": 66660, "name": "K-HERO", "group": "last-30-days", "lat": 63.82427615472683, "lon": 101.00803333297947, "alt_km": 591.3302140036267, "timestamp": "2025-12-03T13:52:08.347389+00:00", "meta": {"OBJECT_NAME": "K-HERO", "OBJECT_ID": "2025-274L", "EPOCH": "2025-12-03T02:05:41.370432", "MEAN_MOTION": 14.92867452, "ECCENTRICITY": 0.00131137, "INCLINATION": 97.7385, "RA_OF_ASC_NODE": 264.4654, "ARG_OF_PERICENTER": 317.1645, "MEAN_ANOMALY": 42.8552, "EPHEMERIS_TYPE": 0, "CLASSIFICATION_TYPE": "U", "NORAD_CAT_ID": 66660, "ELEMENT_SET_NO": 999, "REV_AT_EPOCH": 96, "BSTAR": 0.00049939429, "MEAN_MOTION_DOT": 5.127e-05, "MEAN_MOTION_DDOT": 0}, "tle": {"line1": "1 66660U 25274L   25337.08728438  .00005127  00000+0  49939-3 0  9995", "line2": "2 66660  97.7385 264.4654 0013113 317.1645  42.8552 14.92867452   961"}}, "geometry": {"type": "Point", "coordinates": [101.00803333297947, 63.82427615472683]}}]}